[{"OBJECT_NAME":"COSMOS 2515","OBJECT_ID":"2016-020A","EPOCH":"2026-03-09T23:19:22.597248","MEAN_MOTION":15.0760084,"ECCENTRICITY":0.00222602,"INCLINATION":97.9825,"RA_OF_ASC_NODE":80.7081,"ARG_OF_PERICENTER":278.8424,"MEAN_ANOMALY":81.0282,"EPHEMERIS_TYPE":0,"CLASSIFICATION_TYPE":"U","NORAD_CAT_ID":41394,"ELEMENT_SET_NO":999,"REV_AT_EPOCH":54546,"BSTAR":0.00011725414,"MEAN_MOTION_DOT":1.724e-5,"MEAN_MOTION_DDOT":0},{"OBJECT_NAME":"STARLINK-3761","OBJECT_ID":"2022-041B","EPOCH":"2026-03-09T09:08:14.342784","MEAN_MOTION":15.08842697,"ECCENTRICITY":0.00018896,"INCLINATION":53.2167,"RA_OF_ASC_NODE":110.4603,"ARG_OF_PERICENTER":91.5589,"MEAN_ANOMALY":268.562,"EPHEMERIS_TYPE":0,"CLASSIFICATION_TYPE":"U","NORAD_CAT_ID":52262,"ELEMENT_SET_NO":999,"REV_AT_EPOCH":21431,"BSTAR":1.038593e-6,"MEAN_MOTION_DOT":-2.72e-6,"MEAN_MOTION_DDOT":0}]
